<?xml version="1.0" encoding="UTF-8"?>
<ndm xmlns:xsi="http://www.w3.org/2001/XMLSchema-instance" xsi:noNamespaceSchemaLocation="https://sanaregistry.org/r/ndmxml_unqualified/ndmxml-2.0.0-master-2.0.xsd">
<omm id="CCSDS_OMM_VERS" version="2.0">
<header><CREATION_DATE/><ORIGINATOR/></header><body><segment><metadata><OBJECT_NAME>KUIPER-00008</OBJECT_NAME><OBJECT_ID>2025-088A</OBJECT_ID><CENTER_NAME>EARTH</CENTER_NAME><REF_FRAME>TEME</REF_FRAME><TIME_SYSTEM>UTC</TIME_SYSTEM><MEAN_ELEMENT_THEORY>SGP4</MEAN_ELEMENT_THEORY></metadata><data><meanElements><EPOCH>2025-07-15T12:00:02.000160</EPOCH><MEAN_MOTION>15.11847419</MEAN_MOTION><ECCENTRICITY>.0011409</ECCENTRICITY><INCLINATION>51.8825</INCLINATION><RA_OF_ASC_NODE>89.0020</RA_OF_ASC_NODE><ARG_OF_PERICENTER>36.5161</ARG_OF_PERICENTER><MEAN_ANOMALY>112.0126</MEAN_ANOMALY></meanElements><tleParameters><EPHEMERIS_TYPE>0</EPHEMERIS_TYPE><CLASSIFICATION_TYPE>U</CLASSIFICATION_TYPE><NORAD_CAT_ID>63724</NORAD_CAT_ID><ELEMENT_SET_NO>999</ELEMENT_SET_NO><REV_AT_EPOCH>1246</REV_AT_EPOCH><BSTAR>-.86037E-4</BSTAR><MEAN_MOTION_DOT>-.1794E-4</MEAN_MOTION_DOT><MEAN_MOTION_DDOT>0</MEAN_MOTION_DDOT></tleParameters></data></segment></body></omm>
<omm id="CCSDS_OMM_VERS" version="2.0">
<header><CREATION_DATE/><ORIGINATOR/></header><body><segment><metadata><OBJECT_NAME>KUIPER-00009</OBJECT_NAME><OBJECT_ID>2025-088B</OBJECT_ID><CENTER_NAME>EARTH</CENTER_NAME><REF_FRAME>TEME</REF_FRAME><TIME_SYSTEM>UTC</TIME_SYSTEM><MEAN_ELEMENT_THEORY>SGP4</MEAN_ELEMENT_THEORY></metadata><data><meanElements><EPOCH>2025-07-15T14:00:01.000224</EPOCH><MEAN_MOTION>15.28407207</MEAN_MOTION><ECCENTRICITY>.0011277</ECCENTRICITY><INCLINATION>51.8661</INCLINATION><RA_OF_ASC_NODE>83.9373</RA_OF_ASC_NODE><ARG_OF_PERICENTER>47.0601</ARG_OF_PERICENTER><MEAN_ANOMALY>359.9045</MEAN_ANOMALY></meanElements><tleParameters><EPHEMERIS_TYPE>0</EPHEMERIS_TYPE><CLASSIFICATION_TYPE>U</CLASSIFICATION_TYPE><NORAD_CAT_ID>63725</NORAD_CAT_ID><ELEMENT_SET_NO>999</ELEMENT_SET_NO><REV_AT_EPOCH>1254</REV_AT_EPOCH><BSTAR>-.4569E-1</BSTAR><MEAN_MOTION_DOT>-.1169201E-1</MEAN_MOTION_DOT><MEAN_MOTION_DDOT>0</MEAN_MOTION_DDOT></tleParameters></data></segment></body></omm>
<omm id="CCSDS_OMM_VERS" version="2.0">
<header><CREATION_DATE/><ORIGINATOR/></header><body><segment><metadata><OBJECT_NAME>KUIPER-00010</OBJECT_NAME><OBJECT_ID>2025-088C</OBJECT_ID><CENTER_NAME>EARTH</CENTER_NAME><REF_FRAME>TEME</REF_FRAME><TIME_SYSTEM>UTC</TIME_SYSTEM><MEAN_ELEMENT_THEORY>SGP4</MEAN_ELEMENT_THEORY></metadata><data><meanElements><EPOCH>2025-07-14T03:02:45.392064</EPOCH><MEAN_MOTION>15.35694133</MEAN_MOTION><ECCENTRICITY>.0009907</ECCENTRICITY><INCLINATION>51.8634</INCLINATION><RA_OF_ASC_NODE>90.8023</RA_OF_ASC_NODE><ARG_OF_PERICENTER>33.0791</ARG_OF_PERICENTER><MEAN_ANOMALY>327.0812</MEAN_ANOMALY></meanElements><tleParameters><EPHEMERIS_TYPE>0</EPHEMERIS_TYPE><CLASSIFICATION_TYPE>U</CLASSIFICATION_TYPE><NORAD_CAT_ID>63726</NORAD_CAT_ID><ELEMENT_SET_NO>999</ELEMENT_SET_NO><REV_AT_EPOCH>1194</REV_AT_EPOCH><BSTAR>.30714E-3</BSTAR><MEAN_MOTION_DOT>.10468E-3</MEAN_MOTION_DOT><MEAN_MOTION_DDOT>0</MEAN_MOTION_DDOT></tleParameters></data></segment></body></omm>
<omm id="CCSDS_OMM_VERS" version="2.0">
<header><CREATION_DATE/><ORIGINATOR/></header><body><segment><metadata><OBJECT_NAME>KUIPER-00011</OBJECT_NAME><OBJECT_ID>2025-088D</OBJECT_ID><CENTER_NAME>EARTH</CENTER_NAME><REF_FRAME>TEME</REF_FRAME><TIME_SYSTEM>UTC</TIME_SYSTEM><MEAN_ELEMENT_THEORY>SGP4</MEAN_ELEMENT_THEORY></metadata><data><meanElements><EPOCH>2025-07-14T17:39:49.966272</EPOCH><MEAN_MOTION>15.35302802</MEAN_MOTION><ECCENTRICITY>.0011807</ECCENTRICITY><INCLINATION>51.8570</INCLINATION><RA_OF_ASC_NODE>88.0796</RA_OF_ASC_NODE><ARG_OF_PERICENTER>42.6730</ARG_OF_PERICENTER><MEAN_ANOMALY>317.5171</MEAN_ANOMALY></meanElements><tleParameters><EPHEMERIS_TYPE>0</EPHEMERIS_TYPE><CLASSIFICATION_TYPE>U</CLASSIFICATION_TYPE><NORAD_CAT_ID>63727</NORAD_CAT_ID><ELEMENT_SET_NO>999</ELEMENT_SET_NO><REV_AT_EPOCH>1217</REV_AT_EPOCH><BSTAR>.25061E-3</BSTAR><MEAN_MOTION_DOT>.8363E-4</MEAN_MOTION_DOT><MEAN_MOTION_DDOT>0</MEAN_MOTION_DDOT></tleParameters></data></segment></body></omm>
<omm id="CCSDS_OMM_VERS" version="2.0">
<header><CREATION_DATE/><ORIGINATOR/></header><body><segment><metadata><OBJECT_NAME>KUIPER-00012</OBJECT_NAME><OBJECT_ID>2025-088E</OBJECT_ID><CENTER_NAME>EARTH</CENTER_NAME><REF_FRAME>TEME</REF_FRAME><TIME_SYSTEM>UTC</TIME_SYSTEM><MEAN_ELEMENT_THEORY>SGP4</MEAN_ELEMENT_THEORY></metadata><data><meanElements><EPOCH>2025-07-14T17:38:03.447168</EPOCH><MEAN_MOTION>15.35342861</MEAN_MOTION><ECCENTRICITY>.0011753</ECCENTRICITY><INCLINATION>51.8560</INCLINATION><RA_OF_ASC_NODE>88.0622</RA_OF_ASC_NODE><ARG_OF_PERICENTER>43.8506</ARG_OF_PERICENTER><MEAN_ANOMALY>316.3410</MEAN_ANOMALY></meanElements><tleParameters><EPHEMERIS_TYPE>0</EPHEMERIS_TYPE><CLASSIFICATION_TYPE>U</CLASSIFICATION_TYPE><NORAD_CAT_ID>63728</NORAD_CAT_ID><ELEMENT_SET_NO>999</ELEMENT_SET_NO><REV_AT_EPOCH>1212</REV_AT_EPOCH><BSTAR>.26368E-3</BSTAR><MEAN_MOTION_DOT>.8832E-4</MEAN_MOTION_DOT><MEAN_MOTION_DDOT>0</MEAN_MOTION_DDOT></tleParameters></data></segment></body></omm>
<omm id="CCSDS_OMM_VERS" version="2.0">
<header><CREATION_DATE/><ORIGINATOR/></header><body><segment><metadata><OBJECT_NAME>KUIPER-00013</OBJECT_NAME><OBJECT_ID>2025-088F</OBJECT_ID><CENTER_NAME>EARTH</CENTER_NAME><REF_FRAME>TEME</REF_FRAME><TIME_SYSTEM>UTC</TIME_SYSTEM><MEAN_ELEMENT_THEORY>SGP4</MEAN_ELEMENT_THEORY></metadata><data><meanElements><EPOCH>2025-07-15T14:00:01.000224</EPOCH><MEAN_MOTION>15.26598355</MEAN_MOTION><ECCENTRICITY>.0008359</ECCENTRICITY><INCLINATION>51.8682</INCLINATION><RA_OF_ASC_NODE>84.4069</RA_OF_ASC_NODE><ARG_OF_PERICENTER>34.0830</ARG_OF_PERICENTER><MEAN_ANOMALY>136.8325</MEAN_ANOMALY></meanElements><tleParameters><EPHEMERIS_TYPE>0</EPHEMERIS_TYPE><CLASSIFICATION_TYPE>U</CLASSIFICATION_TYPE><NORAD_CAT_ID>63729</NORAD_CAT_ID><ELEMENT_SET_NO>999</ELEMENT_SET_NO><REV_AT_EPOCH>1234</REV_AT_EPOCH><BSTAR>-.14007E-1</BSTAR><MEAN_MOTION_DOT>-.355486E-2</MEAN_MOTION_DOT><MEAN_MOTION_DDOT>0</MEAN_MOTION_DDOT></tleParameters></data></segment></body></omm>
<omm id="CCSDS_OMM_VERS" version="2.0">
<header><CREATION_DATE/><ORIGINATOR/></header><body><segment><metadata><OBJECT_NAME>KUIPER-00014</OBJECT_NAME><OBJECT_ID>2025-088G</OBJECT_ID><CENTER_NAME>EARTH</CENTER_NAME><REF_FRAME>TEME</REF_FRAME><TIME_SYSTEM>UTC</TIME_SYSTEM><MEAN_ELEMENT_THEORY>SGP4</MEAN_ELEMENT_THEORY></metadata><data><meanElements><EPOCH>2025-07-15T14:00:01.000224</EPOCH><MEAN_MOTION>15.25187356</MEAN_MOTION><ECCENTRICITY>.0010822</ECCENTRICITY><INCLINATION>51.8665</INCLINATION><RA_OF_ASC_NODE>85.2307</RA_OF_ASC_NODE><ARG_OF_PERICENTER>35.0773</ARG_OF_PERICENTER><MEAN_ANOMALY>107.9930</MEAN_ANOMALY></meanElements><tleParameters><EPHEMERIS_TYPE>0</EPHEMERIS_TYPE><CLASSIFICATION_TYPE>U</CLASSIFICATION_TYPE><NORAD_CAT_ID>63730</NORAD_CAT_ID><ELEMENT_SET_NO>999</ELEMENT_SET_NO><REV_AT_EPOCH>1214</REV_AT_EPOCH><BSTAR>.20702E-2</BSTAR><MEAN_MOTION_DOT>.52788E-3</MEAN_MOTION_DOT><MEAN_MOTION_DDOT>0</MEAN_MOTION_DDOT></tleParameters></data></segment></body></omm>
<omm id="CCSDS_OMM_VERS" version="2.0">
<header><CREATION_DATE/><ORIGINATOR/></header><body><segment><metadata><OBJECT_NAME>KUIPER-00015</OBJECT_NAME><OBJECT_ID>2025-088H</OBJECT_ID><CENTER_NAME>EARTH</CENTER_NAME><REF_FRAME>TEME</REF_FRAME><TIME_SYSTEM>UTC</TIME_SYSTEM><MEAN_ELEMENT_THEORY>SGP4</MEAN_ELEMENT_THEORY></metadata><data><meanElements><EPOCH>2025-07-15T12:00:02.000160</EPOCH><MEAN_MOTION>15.04465876</MEAN_MOTION><ECCENTRICITY>.0009709</ECCENTRICITY><INCLINATION>51.8791</INCLINATION><RA_OF_ASC_NODE>92.1262</RA_OF_ASC_NODE><ARG_OF_PERICENTER>29.8937</ARG_OF_PERICENTER><MEAN_ANOMALY>33.6205</MEAN_ANOMALY></meanElements><tleParameters><EPHEMERIS_TYPE>0</EPHEMERIS_TYPE><CLASSIFICATION_TYPE>U</CLASSIFICATION_TYPE><NORAD_CAT_ID>63731</NORAD_CAT_ID><ELEMENT_SET_NO>999</ELEMENT_SET_NO><REV_AT_EPOCH>1250</REV_AT_EPOCH><BSTAR>-.58597E-3</BSTAR><MEAN_MOTION_DOT>-.8571E-4</MEAN_MOTION_DOT><MEAN_MOTION_DDOT>0</MEAN_MOTION_DDOT></tleParameters></data></segment></body></omm>

</ndm>
