KUIPER-00008            
1 63724U 25088A   25196.50002315 -.00001794  00000+0 -86037-4 0  9994
2 63724  51.8825  89.0020 0011409  36.5161 112.0126 15.11847419 12466
KUIPER-00009            
1 63725U 25088B   25196.58334491 -.01169201  00000+0 -45690-1 0  9992
2 63725  51.8661  83.9373 0011277  47.0601 359.9045 15.28407207 12544
KUIPER-00010            
1 63726U 25088C   25195.12691426  .00010468  00000+0  30714-3 0  9996
2 63726  51.8634  90.8023 0009907  33.0791 327.0812 15.35694133 11941
KUIPER-00011            
1 63727U 25088D   25195.73599498  .00008363  00000+0  25061-3 0  9990
2 63727  51.8570  88.0796 0011807  42.6730 317.5171 15.35302802 12175
KUIPER-00012            
1 63728U 25088E   25195.73476212  .00008832  00000+0  26368-3 0  9991
2 63728  51.8560  88.0622 0011753  43.8506 316.3410 15.35342861 12124
KUIPER-00013            
1 63729U 25088F   25196.58334491 -.00355486  00000+0 -14007-1 0  9995
2 63729  51.8682  84.4069 0008359  34.0830 136.8325 15.26598355 12340
KUIPER-00014            
1 63730U 25088G   25196.58334491  .00052788  00000+0  20702-2 0  9994
2 63730  51.8665  85.2307 0010822  35.0773 107.9930 15.25187356 12145
KUIPER-00015            
1 63731U 25088H   25196.50002315 -.00008571  00000+0 -58597-3 0  9991
2 63731  51.8791  92.1262 0009709  29.8937  33.6205 15.04465876 12501
